BEIDOU G1               
1 36287U 10001A   17252.50425170 -.00000296  00000-0  00000+0 0  9996
2 36287   1.4756   5.1618 0004272 167.4498 137.7173  1.00274157 28057
BEIDOU G3               
1 36590U 10024A   17252.28452333 -.00000369  00000-0  00000-0 0  9996
2 36590   1.4007  27.2456 0005877 312.8350 221.4351  1.00274691 26660
BEIDOU IGSO 1           
1 36828U 10036A   17252.57915686 -.00000151  00000-0  10000-3 0  9993
2 36828  54.1732 192.6649 0058810 228.6972 252.9359  1.00252077 26104
BEIDOU G4               
1 37210U 10057A   17252.81434848 -.00000126  00000-0  00000+0 0  9992
2 37210   0.8405  50.8103 0006374 166.6251 224.7056  1.00273422 25178
BEIDOU IGSO 2           
1 37256U 10068A   17252.62341708 -.00000202  00000-0  10000-3 0  9995
2 37256  53.0144 310.2754 0059420 205.4454 176.1694  1.00259770 24694
BEIDOU IGSO 3           
1 37384U 11013A   17252.26263247 -.00000151  00000-0  10000-3 0  9992
2 37384  57.9341  72.0563 0030966 200.8120 290.0577  1.00292500 23561
BEIDOU IGSO 4           
1 37763U 11038A   17252.87681503 -.00000081  00000-0  10000-3 0  9998
2 37763  54.4790 195.0349 0047238 217.9983 345.0148  1.00257745 22539
BEIDOU IGSO 5           
1 37948U 11073A   17252.63363490 -.00000143  00000-0  10000-3 0  9997
2 37948  53.0952 309.7588 0051518 206.7144 155.9017  1.00274674 21294
BEIDOU G5               
1 38091U 12008A   17252.80870252  .00000041  00000-0  00000+0 0  9995
2 38091   2.3537  57.6117 0003476 201.5277  79.7692  1.00276055 20361
BEIDOU M3               
1 38250U 12018A   17252.48350057 -.00000023  00000-0  10000-3 0  9999
2 38250  56.2997  51.3167 0022886 220.6650 297.1570  1.86234513 36641
BEIDOU M4               
1 38251U 12018B   17252.32732015 -.00000024  00000-0  10000-3 0  9992
2 38251  56.2337  50.7508 0025188 215.0988 245.9818  1.86233822 36640
BEIDOU M6               
1 38775U 12050B   17252.62866030  .00000021  00000-0  00000+0 0  9998
2 38775  54.8507 170.4374 0021192 237.4728 261.5903  1.86233129 34025
BEIDOU G6               
1 38953U 12059A   17252.60462657 -.00000188  00000-0  00000-0 0  9996
2 38953   1.8240  79.9933 0005466 155.9634  54.4933  1.00268848 17934
BEIDOU I1-S             
1 40549U 15019A   17252.56042334 -.00000173  00000-0  00000-0 0  9994
2 40549  54.3169 332.8145 0042872 189.0689 124.7071  1.00276978  8967
BEIDOU-3 M1             
1 40748U 15037A   17252.33000896 -.00000026  00000-0  00000-0 0  9994
2 40748  55.5043  50.6627 0004860 251.0550 123.1532  1.86231528 14478
BEIDOU-3 M2             
1 40749U 15037B   17252.12992038 -.00000026  00000-0  00000-0 0  9990
2 40749  55.5058  50.6567 0005474 278.9998  97.3689  1.86232584 14461
BEIDOU I2-S             
1 40938U 15053A   17252.66451096 -.00000122  00000-0  00000-0 0  9998
2 40938  54.0868 295.7207 0048393 177.2437 211.4900  1.00276332  7252
BEIDOU M3-S             
1 41315U 16006A   17252.08185138  .00000022  00000-0  00000-0 0  9992
2 41315  55.0341 170.6992 0002759 318.7904  41.2184  1.86230565 10943
BEIDOU IGSO 6           
1 41434U 16021A   17252.26417957 -.00000110  00000-0  10000-3 0  9991
2 41434  55.6543  71.4723 0031659 177.8001 288.9768  1.00290873  5371
BEIDOU G7               
1 41586U 16037A   17252.52361175 -.00000262  00000-0  00000+0 0  9998
2 41586   1.1129 322.1720 0003141 267.1190  92.5337  1.00271436  4683
